[
    {
        "Altitude(m)": 604221.2142574415,
        "Argument of Periapsis(deg)": 0.0,
        "Eccentricity": 0.0,
        "Inclination(deg)": 60.0,
        "Latitude(deg)": 14.117302482969002,
        "Longitude(deg)": 18.334123002489854,
        "Mean Anomaly(deg)": 16.363600000000012,
        "RAAN(deg)": 110.00000000000001,
        "Satellite Name": "Test1 485",
        "Satellite Number": 485,
        "Semi-Major Axis(m)": 6980739.136638005,
        "Time(s)": 0
    },
    {
        "Altitude(m)": 604235.3556266541,
        "Argument of Periapsis(deg)": 0.00010418945913296404,
        "Eccentricity": 0.0,
        "Inclination(deg)": 60.0,
        "Latitude(deg)": 14.651699866569773,
        "Longitude(deg)": 18.62256880351502,
        "Mean Anomaly(deg)": 16.983706145461827,
        "RAAN(deg)": 109.99957995086025,
        "Satellite Name": "Test1 485",
        "Satellite Number": 485,
        "Semi-Major Axis(m)": 6980739.136638005,
        "Time(s)": 10
    }
]